{
  "norad_id": 67387,
  "name": "LEMUR-2-KATIE",
  "history": [
    {
      "epoch": "2026-03-28T23:00:28.044288",
      "apogee_km": 602.3510291090897,
      "perigee_km": 597.294799355238,
      "latitude_deg": 30.060915034530286,
      "longitude_deg": -69.26883968012407,
      "semi_major_axis_km": 6977.959914232164,
      "eccentricity": 0.0003623,
      "inclination_deg": 97.8048,
      "raan_deg": 88.0082,
      "arg_perigee_deg": 30.3217,
      "mean_anomaly_deg": 329.8209,
      "mean_motion_rev_day": 14.89395566
    }
  ]
}